$$SOE
2459580.500000000, A.D. 2022-Jan-01 00:00:00.0000, 3.453540511416712E+08, -4.118263472366304E+08, -1.438009516089386E+07,
2459587.500000000, A.D. 2022-Jan-08 00:00:00.0000, 3.512465207258269E+08, -4.055176413312907E+08, -1.467257281258968E+07,
2459594.500000000, A.D. 2022-Jan-15 00:00:00.0000, 3.570289196061802E+08, -3.990814631377707E+08, -1.496044130013558E+07,
2459601.500000000, A.D. 2022-Jan-22 00:00:00.0000, 3.626988084793835E+08, -3.925191273077083E+08, -1.524358401165509E+07,
2459608.500000000, A.D. 2022-Jan-29 00:00:00.0000, 3.682537392585582E+08, -3.858319820309232E+08, -1.552188366943812E+07,
2459615.500000000, A.D. 2022-Feb-05 00:00:00.0000, 3.736912527016793E+08, -3.790214108858356E+08, -1.579522217054150E+07,
2459622.500000000, A.D. 2022-Feb-12 00:00:00.0000, 3.790088782409877E+08, -3.720888358012391E+08, -1.606348071362023E+07,
2459629.500000000, A.D. 2022-Feb-19 00:00:00.0000, 3.842041346908476E+08, -3.650357187612257E+08, -1.632653989706747E+07,
2459636.500000000, A.D. 2022-Feb-26 00:00:00.0000, 3.892745305249350E+08, -3.578635629774799E+08, -1.658427972752239E+07,
2459643.500000000, A.D. 2022-Mar-05 00:00:00.0000, 3.942175638841647E+08, -3.505739141469325E+08, -1.683657960410415E+07,
2459650.500000000, A.D. 2022-Mar-12 00:00:00.0000, 3.990307225394158E+08, -3.431683618614372E+08, -1.708331830447437E+07,
2459657.500000000, A.D. 2022-Mar-19 00:00:00.0000, 4.037114838824838E+08, -3.356485411423270E+08, -1.732437397736223E+07,
2459664.500000000, A.D. 2022-Mar-26 00:00:00.0000, 4.082573149700680E+08, -3.280161341066111E+08, -1.755962414450020E+07,
2459671.500000000, A.D. 2022-Apr-02 00:00:00.0000, 4.126656726909822E+08, -3.202728718212374E+08, -1.778894572315992E+07,
2459678.500000000, A.D. 2022-Apr-09 00:00:00.0000, 4.169340043312764E+08, -3.124205363407804E+08, -1.801221509422141E+07,
2459685.500000000, A.D. 2022-Apr-16 00:00:00.0000, 4.210597488979099E+08, -3.044609622746959E+08, -1.822930819539645E+07,
2459692.500000000, A.D. 2022-Apr-23 00:00:00.0000, 4.250403379363931E+08, -2.963960368010189E+08, -1.844010043485844E+07,
2459699.500000000, A.D. 2022-Apr-30 00:00:00.0000, 4.288731939759330E+08, -2.882277003734509E+08, -1.864446643746713E+07,
2459706.500000000, A.D. 2022-May-07 00:00:00.0000, 4.325557296675252E+08, -2.799579500960221E+08, -1.884228006606634E+07,
2459713.500000000, A.D. 2022-May-14 00:00:00.0000, 4.360853490077755E+08, -2.715888427272206E+08, -1.903341459723644E+07,
2459720.500000000, A.D. 2022-May-21 00:00:00.0000, 4.394594486213804E+08, -2.631224965555030E+08, -1.921774280336626E+07,
2459727.500000000, A.D. 2022-May-28 00:00:00.0000, 4.426754186271294E+08, -2.545610931055242E+08, -1.939513697563320E+07,
2459734.500000000, A.D. 2022-Jun-04 00:00:00.0000, 4.457306433680233E+08, -2.459068789877270E+08, -1.956546893903245E+07,
2459741.500000000, A.D. 2022-Jun-11 00:00:00.0000, 4.486225021541842E+08, -2.371621678881724E+08, -1.972861007270899E+07,
2459748.500000000, A.D. 2022-Jun-18 00:00:00.0000, 4.513483700622767E+08, -2.283293426840855E+08, -1.988443133823264E+07,
2459755.500000000, A.D. 2022-Jun-25 00:00:00.0000, 4.539056188268564E+08, -2.194108577173260E+08, -2.003280332141852E+07,
2459762.500000000, A.D. 2022-Jul-02 00:00:00.0000, 4.562916179639372E+08, -2.104092412909090E+08, -2.017359630556409E+07,
2459769.500000000, A.D. 2022-Jul-09 00:00:00.0000, 4.585037365232124E+08, -2.013270982107848E+08, -2.030668039761405E+07,
2459776.500000000, A.D. 2022-Jul-16 00:00:00.0000, 4.605393454206215E+08, -1.921671112889419E+08, -2.043192561381522E+07,
2459783.500000000, A.D. 2022-Jul-23 00:00:00.0000, 4.623958181606357E+08, -1.829320417297429E+08, -2.054920171694634E+07,
2459790.500000000, A.D. 2022-Jul-30 00:00:00.0000, 4.640705300389423E+08, -1.736247317531805E+08, -2.065837808706729E+07,
2459797.500000000, A.D. 2022-Aug-06 00:00:00.0000, 4.655608594296854E+08, -1.642481088048889E+08, -2.075932390306947E+07,
2459804.500000000, A.D. 2022-Aug-13 00:00:00.0000, 4.668641903407525E+08, -1.548051885954174E+08, -2.085190833451445E+07,
2459811.500000000, A.D. 2022-Aug-20 00:00:00.0000, 4.679779146754680E+08, -1.452990774693075E+08, -2.093600064104351E+07,
2459818.500000000, A.D. 2022-Aug-27 00:00:00.0000, 4.688994342766258E+08, -1.357329748274681E+08, -2.101147024511073E+07,
2459825.500000000, A.D. 2022-Sep-03 00:00:00.0000, 4.696261630085833E+08, -1.261101757097194E+08, -2.107818680998510E+07,
2459832.500000000, A.D. 2022-Sep-10 00:00:00.0000, 4.701555289754866E+08, -1.164340735091900E+08, -2.113602032954732E+07,
2459839.500000000, A.D. 2022-Sep-17 00:00:00.0000, 4.704849769133486E+08, -1.067081628151681E+08, -2.118484123301999E+07,
2459846.500000000, A.D. 2022-Sep-24 00:00:00.0000, 4.706119708250458E+08, -9.693604242946757E+07, -2.122452051473819E+07,
2459853.500000000, A.D. 2022-Oct-01 00:00:00.0000, 4.705339971068341E+08, -8.712141857201645E+07, -2.125492991334089E+07,
2459860.500000000, A.D. 2022-Oct-08 00:00:00.0000, 4.702485685822901E+08, -7.726810774557632E+07, -2.127594213570061E+07,
2459867.500000000, A.D. 2022-Oct-15 00:00:00.0000, 4.697532285222157E+08, -6.738003805098620E+07, -2.128743094276252E+07,
2459874.500000000, A.D. 2022-Oct-22 00:00:00.0000, 4.690455524814982E+08, -5.746125062812206E+07, -2.128927103556032E+07,
2459881.500000000, A.D. 2022-Oct-29 00:00:00.0000, 4.681231504616007E+08, -4.751590380776000E+07, -2.128133818338049E+07,
2459888.500000000, A.D. 2022-Nov-05 00:00:00.0000, 4.669836715070013E+08, -3.754827722257590E+07, -2.126350956344241E+07,
2459895.500000000, A.D. 2022-Nov-12 00:00:00.0000, 4.656248087808594E+08, -2.756277459772915E+07, -2.123566402900754E+07,
2459902.500000000, A.D. 2022-Nov-19 00:00:00.0000, 4.640443044112728E+08, -1.756392616208944E+07, -2.119768231856800E+07,
2459909.500000000, A.D. 2022-Nov-26 00:00:00.0000, 4.622399543808072E+08, -7.556391063283144E+06, -2.114944726325940E+07,
2459916.500000000, A.D. 2022-Dec-03 00:00:00.0000, 4.602096136354843E+08, 2.455040217474523E+06, -2.109084400923217E+07,
2459923.500000000, A.D. 2022-Dec-10 00:00:00.0000, 4.579512014687285E+08, 1.246544348650645E+07, -2.102176025813568E+07,
2459930.500000000, A.D. 2022-Dec-17 00:00:00.0000, 4.554627072148656E+08, 2.246975848828804E+07, -2.094208653048882E+07,
2459937.500000000, A.D. 2022-Dec-24 00:00:00.0000, 4.527421963711972E+08, 3.246278653949775E+07, -2.085171646780506E+07,
2459944.500000000, A.D. 2022-Dec-31 00:00:00.0000, 4.497878175148140E+08, 4.243918827490354E+07, -2.075054719794241E+07,
2459951.500000000, A.D. 2023-Jan-07 00:00:00.0000, 4.465978101434086E+08, 5.239348249051739E+07, -2.063847969661950E+07,
2459958.500000000, A.D. 2023-Jan-14 00:00:00.0000, 4.431705114803202E+08, 6.232004660705388E+07, -2.051541892422466E+07,
2459965.500000000, A.D. 2023-Jan-21 00:00:00.0000, 4.395043616084036E+08, 7.221311560727702E+07, -2.038127393837869E+07,
2459972.500000000, A.D. 2023-Jan-28 00:00:00.0000, 4.355979106057782E+08, 8.206677927708153E+07, -2.023595833510147E+07,
2459979.500000000, A.D. 2023-Feb-04 00:00:00.0000, 4.314498274751318E+08, 9.187498080627701E+07, -2.007939075215413E+07,
2459986.500000000, A.D. 2023-Feb-11 00:00:00.0000, 4.270589090700957E+08, 1.016315165868264E+08, -1.991149528563508E+07,
2459993.500000000, A.D. 2023-Feb-18 00:00:00.0000, 4.224240889527036E+08, 1.113300364194122E+08, -1.973220188114722E+07,
2460000.500000000, A.D. 2023-Feb-25 00:00:00.0000, 4.175444464407650E+08, 1.209640440034968E+08, -1.954144673662697E+07,
2460007.500000000, A.D. 2023-Mar-04 00:00:00.0000, 4.124192159427452E+08, 1.305268977688155E+08, -1.933917272438454E+07,
2460014.500000000, A.D. 2023-Mar-11 00:00:00.0000, 4.070477966028831E+08, 1.400118120889375E+08, -1.912532983458615E+07,
2460021.500000000, A.D. 2023-Mar-18 00:00:00.0000, 4.014297622949970E+08, 1.494118588680444E+08, -1.889987564808368E+07,
2460028.500000000, A.D. 2023-Mar-25 00:00:00.0000, 3.955648721557904E+08, 1.587199694948340E+08, -1.866277586052195E+07,
2460035.500000000, A.D. 2023-Apr-01 00:00:00.0000, 3.894530820644376E+08, 1.679289375981656E+08, -1.841400486381288E+07,
2460042.500000000, A.D. 2023-Apr-08 00:00:00.0000, 3.830945564278812E+08, 1.770314238717843E+08, -1.815354622733226E+07,
2460049.500000000, A.D. 2023-Apr-15 00:00:00.0000, 3.764896779059486E+08, 1.860199619087920E+08, -1.788139295332289E+07,
2460056.500000000, A.D. 2023-Apr-22 00:00:00.0000, 3.696390568570343E+08, 1.948869620410863E+08, -1.759754792060212E+07,
2460063.500000000, A.D. 2023-Apr-29 00:00:00.0000, 3.625435432033023E+08, 2.036247154803195E+08, -1.730202458208930E+07,
2460070.500000000, A.D. 2023-May-06 00:00:00.0000, 3.552042389107570E+08, 2.122254005860324E+08, -1.699484760735773E+07,
2460077.500000000, A.D. 2023-May-13 00:00:00.0000, 3.476225100588065E+08, 2.206810904125750E+08, -1.667605345163056E+07,
2460084.500000000, A.D. 2023-May-20 00:00:00.0000, 3.397999986798828E+08, 2.289837610874127E+08, -1.634569091070695E+07,
2460091.500000000, A.D. 2023-May-27 00:00:00.0000, 3.317386345029234E+08, 2.371253010328675E+08, -1.600382167963436E+07,
2460098.500000000, A.D. 2023-Jun-03 00:00:00.0000, 3.234406465922136E+08, 2.450975210960582E+08, -1.565052091567779E+07,
2460105.500000000, A.D. 2023-Jun-10 00:00:00.0000, 3.149085748328347E+08, 2.528921656087340E+08, -1.528587780597605E+07,
2460112.500000000, A.D. 2023-Jun-17 00:00:00.0000, 3.061452812729512E+08, 2.605009243484414E+08, -1.490999614972489E+07,
2460119.500000000, A.D. 2023-Jun-24 00:00:00.0000, 2.971539615584782E+08, 2.679154454833718E+08, -1.452299497619680E+07,
2460126.500000000, A.D. 2023-Jul-01 00:00:00.0000, 2.879381566230919E+08, 2.751273503482527E+08, -1.412500915046790E+07,
2460133.500000000, A.D. 2023-Jul-08 00:00:00.0000, 2.785017628599286E+08, 2.821282508831888E+08, -1.371618974180126E+07,
2460140.500000000, A.D. 2023-Jul-15 00:00:00.0000, 2.688490393916662E+08, 2.889097669123089E+08, -1.329670426367468E+07,
2460147.500000000, A.D. 2023-Jul-22 00:00:00.0000, 2.589846158559026E+08, 2.954635422280666E+08, -1.286673718831064E+07,
$$EOE